start=new Date('2022-08-21T00:00:00.000Z').valueOf();
sats=[{"MEAN_MOTION_DDOT":"0.0000000000000","MEAN_ANOMALY":"256.5062","CENTER_NAME":"EARTH","REV_AT_EPOCH":"12096","CLASSIFICATION_TYPE":"U","COUNTRY_CODE":"US","RA_OF_ASC_NODE":"279.9359","MEAN_MOTION":"15.06390995","SEMIMAJOR_AXIS":"6925.376","OBJECT_ID":"2020-038AA","NORAD_CAT_ID":"45754","OBJECT_TYPE":"PAYLOAD","RCS_SIZE":"LARGE","EPHEMERIS_TYPE":"0","REF_FRAME":"TEME","ECCENTRICITY":"0.00011960","PERIAPSIS":"546.413","BSTAR":"-0.00002922700000","TLE_LINE2":"2 45754  53.0546 279.9359 0001196 103.6060 256.5062 15.06390995120968","INCLINATION":"53.0546","OBJECT_NAME":"STARLINK-1477","TIME_SYSTEM":"UTC","GP_ID":"210584767","MEAN_MOTION_DOT":"-0.00000717","MEAN_ELEMENT_THEORY":"SGP4","DECAY_DATE":null,"FILE":"3541419","ELEMENT_SET_NO":"999","TLE_LINE1":"1 45754U 20038AA  22232.49851341 -.00000717  00000-0 -29227-4 0  9997","LAUNCH_DATE":"2020-06-13","PERIOD":"95.593","ARG_OF_PERICENTER":"103.6060","EPOCH":"2022-08-20T11:57:51.558624","SITE":"AFETR","APOAPSIS":"548.069"},{"TLE_LINE2":"2 45755  53.0528 278.3623 0001391  77.4398 282.6747 15.06384176121005","BSTAR":"-0.00003058900000","INCLINATION":"53.0528","ECCENTRICITY":"0.00013910","PERIAPSIS":"546.299","LAUNCH_DATE":"2020-06-13","PERIOD":"95.593","ARG_OF_PERICENTER":"77.4398","EPOCH":"2022-08-20T20:22:06.095424","ELEMENT_SET_NO":"999","TLE_LINE1":"1 45755U 20038AB  22232.84868166 -.00000737  00000-0 -30589-4 0  9995","APOAPSIS":"548.225","SITE":"AFETR","GP_ID":"210617330","TIME_SYSTEM":"UTC","OBJECT_NAME":"STARLINK-1478","MEAN_ELEMENT_THEORY":"SGP4","MEAN_MOTION_DOT":"-0.00000737","FILE":"3541760","DECAY_DATE":null,"CLASSIFICATION_TYPE":"U","RA_OF_ASC_NODE":"278.3623","COUNTRY_CODE":"US","MEAN_MOTION_DDOT":"0.0000000000000","REV_AT_EPOCH":"12100","MEAN_ANOMALY":"282.6747","CENTER_NAME":"EARTH","RCS_SIZE":"LARGE","NORAD_CAT_ID":"45755","OBJECT_TYPE":"PAYLOAD","EPHEMERIS_TYPE":"0","REF_FRAME":"TEME","MEAN_MOTION":"15.06384176","OBJECT_ID":"2020-038AB","SEMIMAJOR_AXIS":"6925.397"},{"APOAPSIS":"548.166","SITE":"AFETR","LAUNCH_DATE":"2020-06-13","ARG_OF_PERICENTER":"81.4286","PERIOD":"95.593","EPOCH":"2022-08-20T10:42:11.444256","ELEMENT_SET_NO":"999","TLE_LINE1":"1 45756U 20038AC  22232.44596579 -.00000464  00000-0 -12300-4 0  9996","MEAN_ELEMENT_THEORY":"SGP4","MEAN_MOTION_DOT":"-0.00000464","FILE":"3541419","DECAY_DATE":null,"GP_ID":"210583767","TIME_SYSTEM":"UTC","OBJECT_NAME":"STARLINK-1484","INCLINATION":"53.0549","TLE_LINE2":"2 45756  53.0549 280.1699 0001307  81.4286 278.6851 15.06384634120943","BSTAR":"-0.00001230000000","PERIAPSIS":"546.356","ECCENTRICITY":"0.00013070","EPHEMERIS_TYPE":"0","REF_FRAME":"TEME","RCS_SIZE":"LARGE","NORAD_CAT_ID":"45756","OBJECT_TYPE":"PAYLOAD","OBJECT_ID":"2020-038AC","SEMIMAJOR_AXIS":"6925.396","MEAN_MOTION":"15.06384634","CLASSIFICATION_TYPE":"U","RA_OF_ASC_NODE":"280.1699","COUNTRY_CODE":"US","REV_AT_EPOCH":"12094","MEAN_ANOMALY":"278.6851","CENTER_NAME":"EARTH","MEAN_MOTION_DDOT":"0.0000000000000"},{"ECCENTRICITY":"0.00015300","PERIAPSIS":"546.157","BSTAR":"-0.00005134100000","TLE_LINE2":"2 45757  53.0540 280.3896 0001530  69.6206 290.4947 15.06398966120934","INCLINATION":"53.0540","OBJECT_NAME":"STARLINK-1486","GP_ID":"210584016","TIME_SYSTEM":"UTC","MEAN_MOTION_DOT":"-0.00001046","MEAN_ELEMENT_THEORY":"SGP4","FILE":"3541419","DECAY_DATE":null,"ELEMENT_SET_NO":"999","TLE_LINE1":"1 45757U 20038AD  22232.39898212 -.00001046  00000-0 -51341-4 0  9995","LAUNCH_DATE":"2020-06-13","PERIOD":"95.592","EPOCH":"2022-08-20T09:34:32.055168","ARG_OF_PERICENTER":"69.6206","SITE":"AFETR","APOAPSIS":"548.276","MEAN_MOTION_DDOT":"0.0000000000000","MEAN_ANOMALY":"290.4947","CENTER_NAME":"EARTH","REV_AT_EPOCH":"12093","CLASSIFICATION_TYPE":"U","COUNTRY_CODE":"US","RA_OF_ASC_NODE":"280.3896","MEAN_MOTION":"15.06398966","SEMIMAJOR_AXIS":"6925.352","OBJECT_ID":"2020-038AD","NORAD_CAT_ID":"45757","OBJECT_TYPE":"PAYLOAD","RCS_SIZE":"LARGE","EPHEMERIS_TYPE":"0","REF_FRAME":"TEME"},{"ELEMENT_SET_NO":"999","TLE_LINE1":"1 45758U 20038AE  22232.85604239  .00000768  00000-0  70448-4 0  9998","LAUNCH_DATE":"2020-06-13","ARG_OF_PERICENTER":"70.3168","PERIOD":"95.592","EPOCH":"2022-08-20T20:32:42.062496","SITE":"AFETR","APOAPSIS":"548.148","OBJECT_NAME":"STARLINK-1487","TIME_SYSTEM":"UTC","GP_ID":"210617080","MEAN_MOTION_DOT":"0.00000768","MEAN_ELEMENT_THEORY":"SGP4","FILE":"3541760","DECAY_DATE":null,"BSTAR":"0.00007044800000","TLE_LINE2":"2 45758  53.0543 278.3305 0001333  70.3168 289.7964 15.06396439121009","INCLINATION":"53.0543","ECCENTRICITY":"0.00013330","PERIAPSIS":"546.301","NORAD_CAT_ID":"45758","OBJECT_TYPE":"PAYLOAD","RCS_SIZE":"LARGE","EPHEMERIS_TYPE":"0","REF_FRAME":"TEME","MEAN_MOTION":"15.06396439","SEMIMAJOR_AXIS":"6925.359","OBJECT_ID":"2020-038AE","CLASSIFICATION_TYPE":"U","RA_OF_ASC_NODE":"278.3305","COUNTRY_CODE":"US","MEAN_MOTION_DDOT":"0.0000000000000","MEAN_ANOMALY":"289.7964","CENTER_NAME":"EARTH","REV_AT_EPOCH":"12100"},{"MEAN_ANOMALY":"289.5991","CENTER_NAME":"EARTH","REV_AT_EPOCH":"12100","MEAN_MOTION_DDOT":"0.0000000000000","CLASSIFICATION_TYPE":"U","COUNTRY_CODE":"US","RA_OF_ASC_NODE":"278.4233","SEMIMAJOR_AXIS":"6925.403","OBJECT_ID":"2020-038AF","MEAN_MOTION":"15.06382128","EPHEMERIS_TYPE":"0","REF_FRAME":"TEME","NORAD_CAT_ID":"45759","OBJECT_TYPE":"PAYLOAD","RCS_SIZE":"LARGE","PERIAPSIS":"546.203","ECCENTRICITY":"0.00015380","INCLINATION":"53.0538","BSTAR":"-0.00014335000000","TLE_LINE2":"2 45759  53.0538 278.4233 0001538  70.5164 289.5991 15.06382128121008","MEAN_MOTION_DOT":"-0.00002415","MEAN_ELEMENT_THEORY":"SGP4","FILE":"3541760","DECAY_DATE":null,"OBJECT_NAME":"STARLINK-1493","GP_ID":"210616831","TIME_SYSTEM":"UTC","SITE":"AFETR","APOAPSIS":"548.333","ELEMENT_SET_NO":"999","TLE_LINE1":"1 45759U 20038AF  22232.83762082 -.00002415  00000-0 -14335-3 0  9993","LAUNCH_DATE":"2020-06-13","EPOCH":"2022-08-20T20:06:10.438848","PERIOD":"95.593","ARG_OF_PERICENTER":"70.5164"},{"COUNTRY_CODE":"US","RA_OF_ASC_NODE":"280.1862","CLASSIFICATION_TYPE":"U","REV_AT_EPOCH":"12095","CENTER_NAME":"EARTH","MEAN_ANOMALY":"292.5865","MEAN_MOTION_DDOT":"0.0000000000000","REF_FRAME":"TEME","EPHEMERIS_TYPE":"0","RCS_SIZE":"LARGE","OBJECT_TYPE":"PAYLOAD","NORAD_CAT_ID":"45760","OBJECT_ID":"2020-038AG","SEMIMAJOR_AXIS":"6925.370","MEAN_MOTION":"15.06392902","INCLINATION":"53.0523","BSTAR":"0.00001268900000","TLE_LINE2":"2 45760  53.0523 280.1862 0001400  67.5272 292.5865 15.06392902120954","PERIAPSIS":"546.266","ECCENTRICITY":"0.00014000","APOAPSIS":"548.205","SITE":"AFETR","PERIOD":"95.593","ARG_OF_PERICENTER":"67.5272","EPOCH":"2022-08-20T10:38:14.483616","LAUNCH_DATE":"2020-06-13","TLE_LINE1":"1 45760U 20038AG  22232.44322319 -.00000092  00000-0  12689-4 0  9996","ELEMENT_SET_NO":"999","FILE":"3541419","DECAY_DATE":null,"MEAN_ELEMENT_THEORY":"SGP4","MEAN_MOTION_DOT":"-0.00000092","GP_ID":"210583269","TIME_SYSTEM":"UTC","OBJECT_NAME":"STARLINK-1494"},{"GP_ID":"210617805","TIME_SYSTEM":"UTC","OBJECT_NAME":"STARLINK-1495","MEAN_MOTION_DOT":"0.00002996","MEAN_ELEMENT_THEORY":"SGP4","DECAY_DATE":null,"FILE":"3541760","LAUNCH_DATE":"2020-06-13","PERIOD":"91.332","ARG_OF_PERICENTER":"290.5205","EPOCH":"2022-08-20T20:44:16.844640","ELEMENT_SET_NO":"999","TLE_LINE1":"1 45761U 20038AH  22232.86408385  .00002996  00000-0  22386-4 0  9990","APOAPSIS":"345.357","SITE":"AFETR","ECCENTRICITY":"0.00081300","PERIAPSIS":"334.434","BSTAR":"0.00002238600000","TLE_LINE2":"2 45761  53.0415 129.9936 0008130 290.5205  69.4942 15.76666384123100","INCLINATION":"53.0415","MEAN_MOTION":"15.76666384","OBJECT_ID":"2020-038AH","SEMIMAJOR_AXIS":"6718.030","RCS_SIZE":"LARGE","NORAD_CAT_ID":"45761","OBJECT_TYPE":"PAYLOAD","EPHEMERIS_TYPE":"0","REF_FRAME":"TEME","MEAN_MOTION_DDOT":"0.0000000000000","REV_AT_EPOCH":"12310","MEAN_ANOMALY":"69.4942","CENTER_NAME":"EARTH","CLASSIFICATION_TYPE":"U","RA_OF_ASC_NODE":"129.9936","COUNTRY_CODE":"US"},{"COUNTRY_CODE":"US","RA_OF_ASC_NODE":"277.1926","CLASSIFICATION_TYPE":"U","REV_AT_EPOCH":"12103","CENTER_NAME":"EARTH","MEAN_ANOMALY":"259.5446","MEAN_MOTION_DDOT":"0.0000000000000","REF_FRAME":"TEME","EPHEMERIS_TYPE":"0","RCS_SIZE":"LARGE","OBJECT_TYPE":"PAYLOAD","NORAD_CAT_ID":"45762","OBJECT_ID":"2020-038AJ","SEMIMAJOR_AXIS":"6917.930","MEAN_MOTION":"15.08823766","INCLINATION":"53.0542","TLE_LINE2":"2 45762  53.0542 277.1926 0001200 100.5679 259.5446 15.08823766121038","BSTAR":"0.00042972000000","PERIAPSIS":"538.965","ECCENTRICITY":"0.00012000","APOAPSIS":"540.625","SITE":"AFETR","PERIOD":"95.439","EPOCH":"2022-08-20T19:38:09.024864","ARG_OF_PERICENTER":"100.5679","LAUNCH_DATE":"2020-06-13","TLE_LINE1":"1 45762U 20038AJ  22232.81816001  .00006555  00000-0  42972-3 0  9991","ELEMENT_SET_NO":"999","DECAY_DATE":null,"FILE":"3541760","MEAN_ELEMENT_THEORY":"SGP4","MEAN_MOTION_DOT":"0.00006555","GP_ID":"210616581","TIME_SYSTEM":"UTC","OBJECT_NAME":"STARLINK-1499"},{"PERIAPSIS":"546.288","ECCENTRICITY":"0.00013730","INCLINATION":"53.0543","TLE_LINE2":"2 45764  53.0543 280.0597 0001373  81.1459 278.9685 15.06391751121884","BSTAR":"-0.00011225000000","MEAN_MOTION_DOT":"-0.00001953","MEAN_ELEMENT_THEORY":"SGP4","DECAY_DATE":null,"FILE":"3541609","OBJECT_NAME":"STARLINK-1502","GP_ID":"210594760","TIME_SYSTEM":"UTC","SITE":"AFETR","APOAPSIS":"548.190","ELEMENT_SET_NO":"999","TLE_LINE1":"1 45764U 20038AL  22232.47270709 -.00001953  00000-0 -11225-3 0  9990","LAUNCH_DATE":"2020-06-13","ARG_OF_PERICENTER":"81.1459","PERIOD":"95.593","EPOCH":"2022-08-20T11:20:41.892576","MEAN_ANOMALY":"278.9685","CENTER_NAME":"EARTH","REV_AT_EPOCH":"12188","MEAN_MOTION_DDOT":"0.0000000000000","CLASSIFICATION_TYPE":"U","RA_OF_ASC_NODE":"280.0597","COUNTRY_CODE":"US","SEMIMAJOR_AXIS":"6925.374","OBJECT_ID":"2020-038AL","MEAN_MOTION":"15.06391751","EPHEMERIS_TYPE":"0","REF_FRAME":"TEME","NORAD_CAT_ID":"45764","OBJECT_TYPE":"PAYLOAD","RCS_SIZE":"LARGE"}];
